{"type": "FeatureCollection", "features": [ {"type": "Feature", "properties": {"norad_id": 66385, "name": "STARLINK-35659", "group": "last-30-days", "lat": 10.28261336921545, "lon": -45.52927223607855, "alt_km": 446.65299851264535, "timestamp": "2025-12-03T19:33:05.755253+00:00", "meta": {"OBJECT_NAME": "STARLINK-35659", "OBJECT_ID": "2025-257F", "EPOCH": "2025-12-03T12:00:02.998944", "MEAN_MOTION": 15.39581565, "ECCENTRICITY": 0.0001319, "INCLINATION": 53.1587, "RA_OF_ASC_NODE": 308.1361, "ARG_OF_PERICENTER": 96.8871, "MEAN_ANOMALY": 331.3641, "EPHEMERIS_TYPE": 0, "CLASSIFICATION_TYPE": "U", "NORAD_CAT_ID": 66385, "ELEMENT_SET_NO": 999, "REV_AT_EPOCH": 501, "BSTAR": 0.0010254, "MEAN_MOTION_DOT": 0.00040784, "MEAN_MOTION_DDOT": 0}, "tle": {"line1": "1 66385U 25257F   25337.50003471  .00040784  00000+0  10254-2 0  9995", "line2": "2 66385  53.1587 308.1361 0001319  96.8871 331.3641 15.39581565  5019"}}, "geometry": {"type": "Point", "coordinates": [-45.52927223607855, 10.28261336921545]}}, {"type": "Feature", "properties": {"norad_id": 66386, "name": "STARLINK-35651", "group": "last-30-days", "lat": 44.717539972442225, "lon": -5.509478189655587, "alt_km": 435.4952434530642, "timestamp": "2025-12-03T19:33:05.755263+00:00", "meta": {"OBJECT_NAME": "STARLINK-35651", "OBJECT_ID": "2025-257G", "EPOCH": "2025-12-03T12:00:02.998944", "MEAN_MOTION": 15.4257294, "ECCENTRICITY": 8.37e-05, "INCLINATION": 53.1593, "RA_OF_ASC_NODE": 308.0442, "ARG_OF_PERICENTER": 98.0056, "MEAN_ANOMALY": 16.1282, "EPHEMERIS_TYPE": 0, "CLASSIFICATION_TYPE": "U", "NORAD_CAT_ID": 66386, "ELEMENT_SET_NO": 999, "REV_AT_EPOCH": 501, "BSTAR": -0.041343, "MEAN_MOTION_DOT": -0.01633528, "MEAN_MOTION_DDOT": 0}, "tle": {"line1": "1 66386U 25257G   25337.50003471 -.01633528  00000+0 -41343-1 0  9995", "line2": "2 66386  53.1593 308.0442 0000837  98.0056  16.1282 15.42572940  5019"}}, "geometry": {"type": "Point", "coordinates": [-5.509478189655587, 44.717539972442225]}}, {"type": "Feature", "properties": {"norad_id": 66387, "name": "STARLINK-35661", "group": "last-30-days", "lat": 45.68692592926154, "lon": -3.2796121712080497, "alt_km": 435.4963119420581, "timestamp": "2025-12-03T19:33:05.755273+00:00", "meta": {"OBJECT_NAME": "STARLINK-35661", "OBJECT_ID": "2025-257H", "EPOCH": "2025-12-03T12:00:02.998944", "MEAN_MOTION": 15.42583289, "ECCENTRICITY": 6.48e-05, "INCLINATION": 53.1595, "RA_OF_ASC_NODE": 308.0405, "ARG_OF_PERICENTER": 72.0651, "MEAN_ANOMALY": 43.9259, "EPHEMERIS_TYPE": 0, "CLASSIFICATION_TYPE": "U", "NORAD_CAT_ID": 66387, "ELEMENT_SET_NO": 999, "REV_AT_EPOCH": 501, "BSTAR": -0.043116, "MEAN_MOTION_DOT": -0.01696499, "MEAN_MOTION_DDOT": 0}, "tle": {"line1": "1 66387U 25257H   25337.50003471 -.01696499  00000+0 -43116-1 0  9992", "line2": "2 66387  53.1595 308.0405 0000648  72.0651  43.9259 15.42583289  5014"}}, "geometry": {"type": "Point", "coordinates": [-3.2796121712080497, 45.68692592926154]}}, {"type": "Feature", "properties": {"norad_id": 66388, "name": "STARLINK-35647", "group": "last-30-days", "lat": 52.07327869916272, "lon": 20.703486520846884, "alt_km": 426.1295804311485, "timestamp": "2025-12-03T19:33:05.755283+00:00", "meta": {"OBJECT_NAME": "STARLINK-35647", "OBJECT_ID": "2025-257J", "EPOCH": "2025-12-03T12:00:02.998944", "MEAN_MOTION": 15.45540877, "ECCENTRICITY": 0.0001277, "INCLINATION": 53.1595, "RA_OF_ASC_NODE": 308.013, "ARG_OF_PERICENTER": 72.1402, "MEAN_ANOMALY": 57.5407, "EPHEMERIS_TYPE": 0, "CLASSIFICATION_TYPE": "U", "NORAD_CAT_ID": 66388, "ELEMENT_SET_NO": 999, "REV_AT_EPOCH": 501, "BSTAR": -0.047006, "MEAN_MOTION_DOT": -0.02041329, "MEAN_MOTION_DDOT": 0}, "tle": {"line1": "1 66388U 25257J   25337.50003471 -.02041329  00000+0 -47006-1 0  9992", "line2": "2 66388  53.1595 308.0130 0001277  72.1402  57.5407 15.45540877  5019"}}, "geometry": {"type": "Point", "coordinates": [20.703486520846884, 52.07327869916272]}}, {"type": "Feature", "properties": {"norad_id": 66389, "name": "STARLINK-35694", "group": "last-30-days", "lat": 53.03719003385157, "lon": 41.42616793150181, "alt_km": 410.6079861086173, "timestamp": "2025-12-03T19:33:05.755294+00:00", "meta": {"OBJECT_NAME": "STARLINK-35694", "OBJECT_ID": "2025-257K", "EPOCH": "2025-12-03T09:51:45.959040", "MEAN_MOTION": 15.49244836, "ECCENTRICITY": 0.0001836, "INCLINATION": 53.159, "RA_OF_ASC_NODE": 308.4226, "ARG_OF_PERICENTER": 114.7525, "MEAN_ANOMALY": 245.3675, "EPHEMERIS_TYPE": 0, "CLASSIFICATION_TYPE": "U", "NORAD_CAT_ID": 66389, "ELEMENT_SET_NO": 999, "REV_AT_EPOCH": 493, "BSTAR": 0.00034878, "MEAN_MOTION_DOT": 0.00018953, "MEAN_MOTION_DDOT": 0}, "tle": {"line1": "1 66389U 25257K   25337.41094860  .00018953  00000+0  34878-3 0  9993", "line2": "2 66389  53.1590 308.4226 0001836 114.7525 245.3675 15.49244836  4939"}}, "geometry": {"type": "Point", "coordinates": [41.42616793150181, 53.03719003385157]}}, {"type": "Feature", "properties": {"norad_id": 66390, "name": "STARLINK-35665", "group": "last-30-days", "lat": 39.27567179076379, "lon": 88.60295529156463, "alt_km": 412.5296404672981, "timestamp": "2025-12-03T19:33:05.755304+00:00", "meta": {"OBJECT_NAME": "STARLINK-35665", "OBJECT_ID": "2025-257L", "EPOCH": "2025-12-03T09:42:52.043328", "MEAN_MOTION": 15.49342524, "ECCENTRICITY": 0.0001361, "INCLINATION": 53.1588, "RA_OF_ASC_NODE": 308.3801, "ARG_OF_PERICENTER": 95.3157, "MEAN_ANOMALY": 264.8007, "EPHEMERIS_TYPE": 0, "CLASSIFICATION_TYPE": "U", "NORAD_CAT_ID": 66390, "ELEMENT_SET_NO": 999, "REV_AT_EPOCH": 503, "BSTAR": 0.001554, "MEAN_MOTION_DOT": 0.00087051, "MEAN_MOTION_DDOT": 0}, "tle": {"line1": "1 66390U 25257L   25337.40476902  .00087051  00000+0  15540-2 0  9994", "line2": "2 66390  53.1588 308.3801 0001361  95.3157 264.8007 15.49342524  5034"}}, "geometry": {"type": "Point", "coordinates": [88.60295529156463, 39.27567179076379]}}, {"type": "Feature", "properties": {"norad_id": 66391, "name": "STARLINK-35656", "group": "last-30-days", "lat": 46.84291391742888, "lon": 73.34614670116123, "alt_km": 440.3176941795946, "timestamp": "2025-12-03T19:33:05.755314+00:00", "meta": {"OBJECT_NAME": "STARLINK-35656", "OBJECT_ID": "2025-257M", "EPOCH": "2025-12-03T12:00:02.998944", "MEAN_MOTION": 15.39582074, "ECCENTRICITY": 0.0001522, "INCLINATION": 53.1593, "RA_OF_ASC_NODE": 307.9196, "ARG_OF_PERICENTER": 65.7595, "MEAN_ANOMALY": 103.6952, "EPHEMERIS_TYPE": 0, "CLASSIFICATION_TYPE": "U", "NORAD_CAT_ID": 66391, "ELEMENT_SET_NO": 999, "REV_AT_EPOCH": 511, "BSTAR": 0.0007703, "MEAN_MOTION_DOT": 0.00030497, "MEAN_MOTION_DDOT": 0}, "tle": {"line1": "1 66391U 25257M   25337.50003471  .00030497  00000+0  77030-3 0  9998", "line2": "2 66391  53.1593 307.9196 0001522  65.7595 103.6952 15.39582074  5112"}}, "geometry": {"type": "Point", "coordinates": [73.34614670116123, 46.84291391742888]}}, {"type": "Feature", "properties": {"norad_id": 66392, "name": "STARLINK-35671", "group": "last-30-days", "lat": 52.71039306905496, "lon": 26.422371819014902, "alt_km": 427.5151667513437, "timestamp": "2025-12-03T19:33:05.755328+00:00", "meta": {"OBJECT_NAME": "STARLINK-35671", "OBJECT_ID": "2025-257N", "EPOCH": "2025-12-03T12:00:02.998944", "MEAN_MOTION": 15.45035717, "ECCENTRICITY": 0.0001329, "INCLINATION": 53.1593, "RA_OF_ASC_NODE": 308.0034, "ARG_OF_PERICENTER": 82.2543, "MEAN_ANOMALY": 51.5514, "EPHEMERIS_TYPE": 0, "CLASSIFICATION_TYPE": "U", "NORAD_CAT_ID": 66392, "ELEMENT_SET_NO": 999, "REV_AT_EPOCH": 501, "BSTAR": -0.048093, "MEAN_MOTION_DOT": -0.02051228, "MEAN_MOTION_DDOT": 0}, "tle": {"line1": "1 66392U 25257N   25337.50003471 -.02051228  00000+0 -48093-1 0  9993", "line2": "2 66392  53.1593 308.0034 0001329  82.2543  51.5514 15.45035717  5016"}}, "geometry": {"type": "Point", "coordinates": [26.422371819014902, 52.71039306905496]}}, {"type": "Feature", "properties": {"norad_id": 66393, "name": "STARLINK-35652", "group": "last-30-days", "lat": 52.84634056299225, "lon": 44.828950769322006, "alt_km": 410.4218031215996, "timestamp": "2025-12-03T19:33:05.755339+00:00", "meta": {"OBJECT_NAME": "STARLINK-35652", "OBJECT_ID": "2025-257P", "EPOCH": "2025-12-03T08:18:23.186016", "MEAN_MOTION": 15.49329559, "ECCENTRICITY": 0.0001485, "INCLINATION": 53.1589, "RA_OF_ASC_NODE": 308.7286, "ARG_OF_PERICENTER": 104.9265, "MEAN_ANOMALY": 255.1908, "EPHEMERIS_TYPE": 0, "CLASSIFICATION_TYPE": "U", "NORAD_CAT_ID": 66393, "ELEMENT_SET_NO": 999, "REV_AT_EPOCH": 492, "BSTAR": 0.0011247, "MEAN_MOTION_DOT": 0.00062649, "MEAN_MOTION_DDOT": 0}, "tle": {"line1": "1 66393U 25257P   25337.34610169  .00062649  00000+0  11247-2 0  9991", "line2": "2 66393  53.1589 308.7286 0001485 104.9265 255.1908 15.49329559  4926"}}, "geometry": {"type": "Point", "coordinates": [44.828950769322006, 52.84634056299225]}}, {"type": "Feature", "properties": {"norad_id": 66394, "name": "STARLINK-35672", "group": "last-30-days", "lat": 52.23074686014157, "lon": 51.093077109081975, "alt_km": 410.1195989513726, "timestamp": "2025-12-03T19:33:05.755349+00:00", "meta": {"OBJECT_NAME": "STARLINK-35672", "OBJECT_ID": "2025-257Q", "EPOCH": "2025-12-03T09:50:17.398176", "MEAN_MOTION": 15.4934031, "ECCENTRICITY": 0.0001939, "INCLINATION": 53.1588, "RA_OF_ASC_NODE": 308.4152, "ARG_OF_PERICENTER": 89.2215, "MEAN_ANOMALY": 270.9016, "EPHEMERIS_TYPE": 0, "CLASSIFICATION_TYPE": "U", "NORAD_CAT_ID": 66394, "ELEMENT_SET_NO": 999, "REV_AT_EPOCH": 493, "BSTAR": 0.0016114, "MEAN_MOTION_DOT": 0.00090316, "MEAN_MOTION_DDOT": 0}, "tle": {"line1": "1 66394U 25257Q   25337.40992359  .00090316  00000+0  16114-2 0  9993", "line2": "2 66394  53.1588 308.4152 0001939  89.2215 270.9016 15.49340310  4933"}}, "geometry": {"type": "Point", "coordinates": [51.093077109081975, 52.23074686014157]}}]}